start=new Date('2023-03-04T00:00:00.000Z').valueOf();
sats=[{"MEAN_MOTION_DDOT":"0.0000000000000","CLASSIFICATION_TYPE":"U","TIME_SYSTEM":"UTC","OBJECT_TYPE":"PAYLOAD","DECAY_DATE":null,"INCLINATION":"53.2151","TLE_LINE1":"1 49409U 21104B   23062.88928991  .00008905  00000-0  57674-3 0  9995","ECCENTRICITY":"0.00014380","RA_OF_ASC_NODE":"135.2945","MEAN_ANOMALY":"270.6112","COUNTRY_CODE":"US","REV_AT_EPOCH":"7230","FILE":"3850400","OBJECT_NAME":"STARLINK-3075","RCS_SIZE":"LARGE","TLE_LINE2":"2 49409  53.2151 135.2945 0001438  89.5044 270.6112 15.08850739 72307","MEAN_MOTION_DOT":"0.00008905","BSTAR":"0.00057674000000","MEAN_ELEMENT_THEORY":"SGP4","OBJECT_ID":"2021-104B","CENTER_NAME":"EARTH","SITE":"AFETR","ARG_OF_PERICENTER":"89.5044","ELEMENT_SET_NO":"999","MEAN_MOTION":"15.08850739","PERIAPSIS":"538.718","EPOCH":"2023-03-03T21:20:34.648224","GP_ID":"227433172","NORAD_CAT_ID":"49409","SEMIMAJOR_AXIS":"6917.848","EPHEMERIS_TYPE":"0","REF_FRAME":"TEME","LAUNCH_DATE":"2021-11-13","APOAPSIS":"540.707","PERIOD":"95.437"},{"REV_AT_EPOCH":"7226","TLE_LINE2":"2 49410  53.2143 136.2201 0001155 106.1637 253.9482 15.08860932 72261","RCS_SIZE":"LARGE","FILE":"3850400","OBJECT_NAME":"STARLINK-3147","COUNTRY_CODE":"US","MEAN_ANOMALY":"253.9482","RA_OF_ASC_NODE":"136.2201","ECCENTRICITY":"0.00011550","TLE_LINE1":"1 49410U 21104C   23062.68319489  .00008322  00000-0  54004-3 0  9998","INCLINATION":"53.2143","DECAY_DATE":null,"CLASSIFICATION_TYPE":"U","MEAN_MOTION_DDOT":"0.0000000000000","OBJECT_TYPE":"PAYLOAD","TIME_SYSTEM":"UTC","REF_FRAME":"TEME","EPHEMERIS_TYPE":"0","APOAPSIS":"540.480","PERIOD":"95.436","LAUNCH_DATE":"2021-11-13","PERIAPSIS":"538.882","SEMIMAJOR_AXIS":"6917.816","NORAD_CAT_ID":"49410","GP_ID":"227431919","EPOCH":"2023-03-03T16:23:48.038496","ELEMENT_SET_NO":"999","ARG_OF_PERICENTER":"106.1637","MEAN_MOTION":"15.08860932","CENTER_NAME":"EARTH","OBJECT_ID":"2021-104C","MEAN_ELEMENT_THEORY":"SGP4","BSTAR":"0.00054004000000","MEAN_MOTION_DOT":"0.00008322","SITE":"AFETR"},{"OBJECT_NAME":"STARLINK-3162","FILE":"3850400","RCS_SIZE":"LARGE","TLE_LINE2":"2 49411  53.2145 125.3535 0002994  86.6984 273.4350 15.08843637 72435","REV_AT_EPOCH":"7243","MEAN_ANOMALY":"273.4350","RA_OF_ASC_NODE":"125.3535","COUNTRY_CODE":"US","TLE_LINE1":"1 49411U 21104D   23062.87549766  .00006930  00000-0  45305-3 0  9990","INCLINATION":"53.2145","DECAY_DATE":null,"ECCENTRICITY":"0.00029940","OBJECT_TYPE":"PAYLOAD","TIME_SYSTEM":"UTC","CLASSIFICATION_TYPE":"U","MEAN_MOTION_DDOT":"0.0000000000000","LAUNCH_DATE":"2021-11-13","APOAPSIS":"541.805","PERIOD":"95.437","EPHEMERIS_TYPE":"0","REF_FRAME":"TEME","GP_ID":"227432169","EPOCH":"2023-03-03T21:00:42.997824","SEMIMAJOR_AXIS":"6917.869","NORAD_CAT_ID":"49411","PERIAPSIS":"537.663","MEAN_MOTION":"15.08843637","ARG_OF_PERICENTER":"86.6984","ELEMENT_SET_NO":"999","SITE":"AFETR","BSTAR":"0.00045305000000","MEAN_ELEMENT_THEORY":"SGP4","MEAN_MOTION_DOT":"0.00006930","CENTER_NAME":"EARTH","OBJECT_ID":"2021-104D"},{"OBJECT_ID":"2021-104E","CENTER_NAME":"EARTH","MEAN_MOTION_DOT":"0.00010428","BSTAR":"0.00067156000000","MEAN_ELEMENT_THEORY":"SGP4","SITE":"AFETR","ELEMENT_SET_NO":"999","ARG_OF_PERICENTER":"119.6569","MEAN_MOTION":"15.08882606","PERIAPSIS":"538.609","NORAD_CAT_ID":"49412","SEMIMAJOR_AXIS":"6917.750","EPOCH":"2023-03-03T14:53:43.080000","GP_ID":"227432922","REF_FRAME":"TEME","EPHEMERIS_TYPE":"0","APOAPSIS":"540.622","PERIOD":"95.435","LAUNCH_DATE":"2021-11-13","MEAN_MOTION_DDOT":"0.0000000000000","CLASSIFICATION_TYPE":"U","TIME_SYSTEM":"UTC","OBJECT_TYPE":"PAYLOAD","ECCENTRICITY":"0.00014550","DECAY_DATE":null,"TLE_LINE1":"1 49412U 21104E   23062.62063750  .00010428  00000-0  67156-3 0  9993","INCLINATION":"53.2151","COUNTRY_CODE":"US","RA_OF_ASC_NODE":"136.4980","MEAN_ANOMALY":"240.4568","REV_AT_EPOCH":"7226","TLE_LINE2":"2 49412  53.2151 136.4980 0001455 119.6569 240.4568 15.08882606 72262","RCS_SIZE":"LARGE","FILE":"3850400","OBJECT_NAME":"STARLINK-3144"},{"COUNTRY_CODE":"US","RA_OF_ASC_NODE":"125.3805","MEAN_ANOMALY":"271.6706","RCS_SIZE":"LARGE","TLE_LINE2":"2 49413  53.2155 125.3805 0001297  88.4435 271.6706 15.08868257 72434","OBJECT_NAME":"STARLINK-3157","FILE":"3850400","REV_AT_EPOCH":"7243","TIME_SYSTEM":"UTC","OBJECT_TYPE":"PAYLOAD","MEAN_MOTION_DDOT":"0.0000000000000","CLASSIFICATION_TYPE":"U","ECCENTRICITY":"0.00012970","DECAY_DATE":null,"INCLINATION":"53.2155","TLE_LINE1":"1 49413U 21104F   23062.87276861  .00023254  00000-0  14732-2 0  9992","NORAD_CAT_ID":"49413","SEMIMAJOR_AXIS":"6917.794","EPOCH":"2023-03-03T20:56:47.207904","GP_ID":"227433672","PERIAPSIS":"538.762","APOAPSIS":"540.556","PERIOD":"95.436","LAUNCH_DATE":"2021-11-13","REF_FRAME":"TEME","EPHEMERIS_TYPE":"0","SITE":"AFETR","OBJECT_ID":"2021-104F","CENTER_NAME":"EARTH","MEAN_MOTION_DOT":"0.00023254","MEAN_ELEMENT_THEORY":"SGP4","BSTAR":"0.00147320000000","MEAN_MOTION":"15.08868257","ELEMENT_SET_NO":"999","ARG_OF_PERICENTER":"88.4435"},{"COUNTRY_CODE":"US","MEAN_ANOMALY":"268.9592","RA_OF_ASC_NODE":"136.2365","RCS_SIZE":"LARGE","TLE_LINE2":"2 49414  53.2152 136.2365 0001358  91.1555 268.9592 15.08903867 72266","FILE":"3850400","OBJECT_NAME":"STARLINK-3146","REV_AT_EPOCH":"7226","OBJECT_TYPE":"PAYLOAD","TIME_SYSTEM":"UTC","CLASSIFICATION_TYPE":"U","MEAN_MOTION_DDOT":"0.0000000000000","ECCENTRICITY":"0.00013580","TLE_LINE1":"1 49414U 21104G   23062.67952055  .00043750  00000-0  27452-2 0  9993","INCLINATION":"53.2152","DECAY_DATE":null,"SEMIMAJOR_AXIS":"6917.685","NORAD_CAT_ID":"49414","GP_ID":"227432419","EPOCH":"2023-03-03T16:18:30.575520","PERIAPSIS":"538.611","PERIOD":"95.434","APOAPSIS":"540.490","LAUNCH_DATE":"2021-11-13","REF_FRAME":"TEME","EPHEMERIS_TYPE":"0","SITE":"AFETR","CENTER_NAME":"EARTH","OBJECT_ID":"2021-104G","BSTAR":"0.00274520000000","MEAN_ELEMENT_THEORY":"SGP4","MEAN_MOTION_DOT":"0.00043750","MEAN_MOTION":"15.08903867","ELEMENT_SET_NO":"999","ARG_OF_PERICENTER":"91.1555"},{"EPHEMERIS_TYPE":"0","REF_FRAME":"TEME","LAUNCH_DATE":"2021-11-13","APOAPSIS":"540.629","PERIOD":"95.435","PERIAPSIS":"538.583","EPOCH":"2023-03-03T20:50:06.570240","GP_ID":"227432670","NORAD_CAT_ID":"49415","SEMIMAJOR_AXIS":"6917.741","ARG_OF_PERICENTER":"69.9704","ELEMENT_SET_NO":"999","MEAN_MOTION":"15.08885675","MEAN_MOTION_DOT":"0.00021243","BSTAR":"0.00134710000000","MEAN_ELEMENT_THEORY":"SGP4","OBJECT_ID":"2021-104H","CENTER_NAME":"EARTH","SITE":"AFETR","REV_AT_EPOCH":"7242","OBJECT_NAME":"STARLINK-3159","FILE":"3850400","RCS_SIZE":"LARGE","TLE_LINE2":"2 49415  53.2142 125.3908 0001479  69.9704 290.1447 15.08885675 72421","RA_OF_ASC_NODE":"125.3908","MEAN_ANOMALY":"290.1447","COUNTRY_CODE":"US","DECAY_DATE":null,"TLE_LINE1":"1 49415U 21104H   23062.86813160  .00021243  00000-0  13471-2 0  9997","INCLINATION":"53.2142","ECCENTRICITY":"0.00014790","MEAN_MOTION_DDOT":"0.0000000000000","CLASSIFICATION_TYPE":"U","TIME_SYSTEM":"UTC","OBJECT_TYPE":"PAYLOAD"},{"DECAY_DATE":null,"TLE_LINE1":"1 49416U 21104J   23062.60592470  .00029175  00000-0  18406-2 0  9993","INCLINATION":"53.2158","ECCENTRICITY":"0.00012790","MEAN_MOTION_DDOT":"0.0000000000000","CLASSIFICATION_TYPE":"U","TIME_SYSTEM":"UTC","OBJECT_TYPE":"PAYLOAD","REV_AT_EPOCH":"7334","FILE":"3850114","OBJECT_NAME":"STARLINK-3133","TLE_LINE2":"2 49416  53.2158 136.5678 0001279 106.5743 253.5390 15.08900000 73348","RCS_SIZE":"LARGE","RA_OF_ASC_NODE":"136.5678","MEAN_ANOMALY":"253.5390","COUNTRY_CODE":"US","ARG_OF_PERICENTER":"106.5743","ELEMENT_SET_NO":"999","MEAN_MOTION":"15.08900000","MEAN_MOTION_DOT":"0.00029175","MEAN_ELEMENT_THEORY":"SGP4","BSTAR":"0.00184060000000","OBJECT_ID":"2021-104J","CENTER_NAME":"EARTH","SITE":"AFETR","EPHEMERIS_TYPE":"0","REF_FRAME":"TEME","LAUNCH_DATE":"2021-11-13","APOAPSIS":"540.447","PERIOD":"95.434","PERIAPSIS":"538.677","EPOCH":"2023-03-03T14:32:31.894080","GP_ID":"227378239","NORAD_CAT_ID":"49416","SEMIMAJOR_AXIS":"6917.697"},{"BSTAR":"0.00095482000000","MEAN_ELEMENT_THEORY":"SGP4","MEAN_MOTION_DOT":"0.00014953","CENTER_NAME":"EARTH","OBJECT_ID":"2021-104K","SITE":"AFETR","ARG_OF_PERICENTER":"89.7908","ELEMENT_SET_NO":"999","MEAN_MOTION":"15.08870005","PERIAPSIS":"538.180","GP_ID":"227433173","EPOCH":"2023-03-03T20:44:48.912864","SEMIMAJOR_AXIS":"6917.789","NORAD_CAT_ID":"49417","EPHEMERIS_TYPE":"0","REF_FRAME":"TEME","LAUNCH_DATE":"2021-11-13","APOAPSIS":"541.127","PERIOD":"95.436","CLASSIFICATION_TYPE":"U","MEAN_MOTION_DDOT":"0.0000000000000","OBJECT_TYPE":"PAYLOAD","TIME_SYSTEM":"UTC","TLE_LINE1":"1 49417U 21104K   23062.86445501  .00014953  00000-0  95482-3 0  9992","INCLINATION":"53.2161","DECAY_DATE":null,"ECCENTRICITY":"0.00021300","MEAN_ANOMALY":"270.3328","RA_OF_ASC_NODE":"125.4037","COUNTRY_CODE":"US","REV_AT_EPOCH":"7242","OBJECT_NAME":"STARLINK-3154","FILE":"3850400","RCS_SIZE":"LARGE","TLE_LINE2":"2 49417  53.2161 125.4037 0002130  89.7908 270.3328 15.08870005 72428"},{"NORAD_CAT_ID":"49418","SEMIMAJOR_AXIS":"6917.629","EPOCH":"2023-03-03T16:02:37.351968","GP_ID":"227431920","PERIAPSIS":"538.482","APOAPSIS":"540.506","PERIOD":"95.432","LAUNCH_DATE":"2021-11-13","REF_FRAME":"TEME","EPHEMERIS_TYPE":"0","SITE":"AFETR","OBJECT_ID":"2021-104L","CENTER_NAME":"EARTH","MEAN_MOTION_DOT":"0.00053663","MEAN_ELEMENT_THEORY":"SGP4","BSTAR":"0.00335680000000","MEAN_MOTION":"15.08922121","ELEMENT_SET_NO":"999","ARG_OF_PERICENTER":"74.4821","COUNTRY_CODE":"US","RA_OF_ASC_NODE":"136.2878","MEAN_ANOMALY":"285.6332","RCS_SIZE":"LARGE","TLE_LINE2":"2 49418  53.2147 136.2878 0001463  74.4821 285.6332 15.08922121 72251","FILE":"3850400","OBJECT_NAME":"STARLINK-3111","REV_AT_EPOCH":"7225","TIME_SYSTEM":"UTC","OBJECT_TYPE":"PAYLOAD","MEAN_MOTION_DDOT":"0.0000000000000","CLASSIFICATION_TYPE":"U","ECCENTRICITY":"0.00014630","DECAY_DATE":null,"TLE_LINE1":"1 49418U 21104L   23062.66848787  .00053663  00000-0  33568-2 0  9991","INCLINATION":"53.2147"}];
